#dP2024  9 21  0  0  0.00000000      97 __u+U IGS20 FIT  IAC
## 2332 518400.00000000   900.00000000 60574 0.0000000000000
+  119   C06C07C08C09C10C11C12C13C14C16C19C20C21C22C23C24C26
+        C27C28C29C30C32C33C34C35C36C37C38C39C40C41C42C43C44
+        C45E02E03E04E05E06E07E08E09E10E11E12E13E14E15E18E19
+        E21E24E25E26E27E29E30E31E33E34E36G01G02G03G04G05G06
+        G07G08G09G10G11G12G13G14G15G16G17G18G19G20G21G22G23
+        G24G25G26G27G28G29G30G31G32J02J03J04R01R02R03R04R05
+        R07R08R09R11R12R14R15R16R17R18R19R20R21R22R24R25R26
++         7  7  7  7  7  6  6  7  7  7  5  5  6  6  6  5  6
++         6  6  5  6  5  5  6  6  5  6  6  6  6  6  6  6  6
++         6  4  4  4  4  4  4  4  4  4  4  4  4  5  4  4  4
++         4  4  4  4  4  4  4  4  4  4  4  3  3  3  3  3  3
++         3  3  3  3  3  3  3  3  3  3  3  3  4  3  3  3  3
++         4  3  3  3  3  3  3  3  4 11 11 11  7  7  7  7  7
++         7  6  6  6  6  7  7  7  6  6  7  7  7  6  6  7  8
%c M  cc GPS ccc cccc cccc cccc cccc ccccc ccccc ccccc ccccc
%c cc cc ccc ccc cccc cccc cccc cccc ccccc ccccc ccccc ccccc
%f  1.2500000  1.025000000  0.00000000000  0.000000000000000
%f  0.0000000  0.000000000  0.00000000000  0.000000000000000
%i    0    0    0    0      0      0      0      0         0
%i    0    0    0    0      0      0      0      0         0
/* INFORMATION & ANALYSIS CENTER (IAC)            FINAL DATA
/* S/V CLOCKS ARE ALIGNED TO GNSS TIME                      
/* G:C1WC2W R:C1PC2P E:C1XC5X C:C2IC6I J:C1CC2S             
/* PCV:IGS20_2317 OL/AL:FES2004  NONE     YN ORB:CoN CLK:CoN
*  2024 09 21 20 15  0.00000000
PC06   -812.727346  29264.670386 -30166.046484    245.197446
PC07 -17234.922964  30674.425023  23196.578270   -353.441010
PC08 -10335.824351  40819.031955   3968.833430   -569.232448
PC09   6107.326075  32495.287007 -25276.706281   -365.059050
PC10  -9089.875181  30878.411164  27350.205043   -189.563875
PC11 -26491.411685  -8303.829061   2804.221362    773.610466
PC12 -16397.921659 -16855.246525 -14972.077241   -263.744109
PC13  -4858.004833  41879.580855  -3541.933241    432.917433
PC14 -20389.507686    690.772895  19014.579638   -224.263152
PC16  -4824.494202  26319.907034 -32176.270844   -820.935041
PC19  23296.030418  -9207.469414 -12312.513554   -938.862401
PC20  15578.786994   6318.979084 -22282.087174   -948.675919
PC21   2539.204588 -19646.693434  19665.370820   -928.852869
PC22  18227.109624 -20455.530097   5348.260883    129.819635
PC23  -9074.378594  19710.998598 -17545.848791   -839.750840
PC24 -14223.987181 -19364.557759 -14182.913015    822.380574
PC26  -4261.374589 -27455.418515   2377.904103   -352.057808
PC27   7208.721875  17705.605884  20312.800546    372.046305
PC28 -10807.320676  12837.614026  22303.783105    288.292891
PC29  26066.290815    676.818913  -9952.837217    338.519525
PC30  23092.515597  13274.443248   8295.944575   -212.192249
PC32  -2482.745185  19711.158841 -19589.272208   -741.473816
PC33 -23213.464100   9235.945042  12408.970805   -966.382373
PC34 -24064.661458 -12453.362620  -6711.327055    526.124866
PC35  10933.630884 -13045.067419 -22120.631448    255.062463
PC36  16455.848650   -529.267533  22555.159980    187.810270
PC37   3608.192369  27577.996385  -2454.519067   -896.746999
PC38 -14124.731496  37852.036093  12404.969381    180.746309
PC39  -9216.752419  23017.258070 -34012.724788     -9.926467
PC40 -24255.532910  24550.059038  24036.782430    -92.477423
PC41 -18705.165641  20219.167362  -4385.103942   -907.071522
PC42 -14178.564686  -7973.227988  22701.987285   -480.807984
PC43 -26367.984820  -1362.526014   9047.192942     86.500568
PC44  -7697.079640 -17544.997419 -20309.028536    600.192492
PC45   9358.293289 -19227.072051  17915.261611   -135.336276
PE02   7160.799975 -27829.330748  -7071.031218    161.089965
PE03   4614.691738 -17119.935677  23692.767348   -141.922325
PE04  17812.512098  12241.051499 -20226.337434    -38.666837
PE05  23752.450210 -11806.638965  13137.811931   4786.237892
PE06  25456.421574   6873.868884 -13463.801304    -28.198188
PE07 -29075.666699   -666.448014   5474.435710   -143.300980
PE08 -16994.748267 -12515.962144  20740.597203   -339.287437
PE09  29070.505608    703.068449  -5579.215499   -598.250540
PE10  21233.296737  17865.505240 -10329.032568   -658.196020
PE11  21226.577760   8667.518441 -18728.962309   1576.260557
PE12  18102.388084  23371.187672  -1448.846045  -1219.925434
PE13 -21286.546658  -9245.612470  18376.362342    -25.010012
PE14  31206.598963   -177.854999   4001.628236    241.644732
PE15 -17797.968299 -23636.305085    787.988290   -128.530820
PE18 -22695.500651  -5097.026374  -8581.465228    573.487363
PE19  -6899.732593  16869.236677 -23322.879986    658.386681
PE21 -17731.034509  20974.615383 -11035.640822   -618.141714
PE24  18287.174004  -1261.373895  23227.751627  -1000.390038
PE25  17880.427304 -20638.190175  11430.849350      9.321057
PE26 -12042.739506  10856.381941  24771.130422   -262.579827
PE27 -18285.764593   1507.148484 -23223.777265   -458.415790
PE29 -23478.757405  12043.194236 -13431.904341    -31.932943
PE30  -8068.586202 -18619.430199 -21551.211426   -740.770947
PE31   8057.949949  18608.082090  21574.779892    -36.659269
PE33   3529.432694  23756.424287  17316.577127     15.454029
PE34  -3937.548494 -23906.059735 -16993.409639   -135.667463
PE36  12297.794611 -10243.247771 -24895.782645   -286.543674
PG01   6949.188507 -25226.678781  -3718.654564    191.458947
PG02 -21768.258490 -11862.264787  10448.939754   -353.217294
PG03 -14935.556413  -1189.833407  21751.770901    545.654214
PG04 -25703.665535  -1340.340034   6870.292307    447.956294
PG05   7794.114626  17419.136787 -18628.164133   -187.350599
PG06   -169.691394  19133.417328  18440.742460     14.945103
PG07 -16361.343414   2953.192747 -20280.724535    -35.222037
PG08 -19426.714641  -8050.258375 -16591.326446    360.229944
PG09 -25320.202227   7417.029516  -3413.798638    366.296293
PG10  10268.454421 -24214.151318  -1760.192270   -132.833858
PG11  11728.837919  22987.358152   6468.355671   -737.040825
PG12  13856.557165   5917.669342  21591.829783   -539.739490
PG13  11306.287355  13486.035344 -20193.147540    677.695367
PG14 -13104.687540  22282.271471  -5510.197818    500.752378
PG15  20259.817377   6120.262834 -16667.159931    206.947835
PG16  -3018.037735 -20636.535531 -16516.614425   -174.869726
PG17 -15220.733547  13732.655952  17400.697771    619.839481
PG18  15431.081476  -3824.421901 -21293.133496   -654.607061
PG19  -6144.955543  14868.147987  20901.725219    541.022305
PG20   2423.911907  24741.910607  -9487.946283    370.407191
PG21 -21199.248685 -16306.981108   4975.056554    101.299770
PG22  -9295.019672  24888.177968   3295.109878    -64.088940
PG23  15432.867783 -16281.586578 -14012.330180    325.239930
PG24  21597.892960  13827.112113   7232.971996   -486.450087
PG25  16808.244171  -7883.616813  18555.562143    499.627912
PG26   3253.791231 -25701.807365  -5016.176745     73.676870
PG27  -8706.636081 -13660.746936 -21408.059191    -33.899683
PG28   1808.669665 -18207.604998  19239.389200   -419.496206
PG29  26408.436812  -3255.053103  -1142.551214   -576.355631
PG30  -8754.175363  13559.426731 -20906.921484   -316.954046
PG31  -8373.268261 -22575.045507  10542.791786   -224.409745
PG32  13094.525202 -14931.158984  17752.660541   -594.900159
PJ02 -27263.791365  31500.348658  -2111.734473     -1.077152
PJ03 -26624.802996  21924.544870  29374.440554     -3.368462
PJ04 -33609.103882  24974.541291   -432.421357     22.204991
PR01 -22336.577293  11054.568445   5410.052896     98.538831
PR02 -16548.038975  15691.965417 -11463.981250    -24.770440
PR03   -707.653829  12491.814213 -22199.534060    107.998155
PR04  14821.556486   2433.591023 -20588.599669    255.774839
PR05  22602.006493  -8714.495151  -7942.687255    138.003902
PR07     29.706949 -12201.209799  22425.618391     91.360953
PR08 -15117.422013  -2229.762642  20489.739822     -6.410817
PR09   5193.018680 -21721.490990  12424.157854    210.434357
PR11  -8868.819364 -15786.469806 -17963.000113     11.238937
PR12 -10716.505119   5237.594255 -22521.605282     45.109533
PR14   2770.504471  24958.043053   4434.735753     26.953811
PR15   9361.099109  14231.117546  19005.764305     75.639810
PR16  10587.689946  -5084.615948  22659.800802     29.330937
PR17  11579.535112  15457.523345  16703.823728    124.047666
PR18  21459.792540  13628.897913   1861.298846    163.183259
PR19  21150.074542   6711.328227 -12592.313860   -292.205682
PR20   6732.249165  -8029.417941 -23243.603228   -119.428834
PR21 -10769.198544 -15371.757843 -17250.149719   -136.414086
PR22 -21523.332150 -13681.741320   -552.389199     41.238962
PR24  -6097.359914   9069.453764  23067.919472    -72.959103
PR25 -11142.115583 -16091.346243 -16333.560768    -98.536511
PR26 -13884.106480  -3235.852755  21161.896593     36.472529
EOF
